#aV2019  8 26  0  0  0.00000000     288 DD+AD WGS84 FIT  NGA
## 2068  86400.00000000   300.00000000 58721 0.0000000000000
+   31     1  2  3  5  6  7  8  9 10 11 12 13 14 15 16 17 18
+         19 20 21 22 23 24 25 26 27 28 29 30 31 32  0  0  0
+          0  0  0  0  0  0  0  0  0  0  0  0  0  0  0  0  0
+          0  0  0  0  0  0  0  0  0  0  0  0  0  0  0  0  0
+          0  0  0  0  0  0  0  0  0  0  0  0  0  0  0  0  0
++         2  2  2  2  2  2  2  2  2  2  2  2  2  2  2  2  2
++         2  2  2  2  2  2  2  2  2  2  2  2  2  2  0  0  0
++         0  0  0  0  0  0  0  0  0  0  0  0  0  0  0  0  0
++         0  0  0  0  0  0  0  0  0  0  0  0  0  0  0  0  0
++         0  0  0  0  0  0  0  0  0  0  0  0  0  0  0  0  0
%c cc cc ccc ccc cccc cccc cccc cccc ccccc ccccc ccccc ccccc
%c cc cc ccc ccc cccc cccc cccc cccc ccccc ccccc ccccc ccccc
%f  0.0000000  0.000000000  0.00000000000  0.000000000000000
%f  0.0000000  0.000000000  0.00000000000  0.000000000000000
%i    0    0    0    0      0      0      0      0         0
%i    0    0    0    0      0      0      0      0         0
/*      NGA, ST. LOUIS,MO.                                  
/*   EPHEMERIS COMPUTED FROM 2 DAYS OF DATA                 
/*   EPOCHA v5 SMOOTHER                                     
/*   G1762 IERS2010 SATAF SATAPC                            
*  2019  8 26 11 55  0.00000000
P  1  13358.680597 -14438.237398  17490.118671   -108.507305                    
V  1   -682.671282  22742.083749  19386.165406     -0.118386                    
P  2 -14194.056003  -7919.645133 -20424.814495   -291.299857                    
V  2   1742.806693 -27284.325132   8966.732038     -0.082657                    
P  3  22446.166339 -13463.490303  -4269.617748     -4.836169                    
V  3   6021.864833    273.222496  31266.089447     -0.033991                    
P  5 -22611.284390   -249.569426 -14229.085772     -0.902175                    
V  5  15013.718468  -9783.400461 -23708.273189     -0.002852                    
P  6  -6890.128639 -21966.834801 -13179.770953    -37.006664                    
V  6   3460.802319 -16532.476466  25695.907496     -0.120618                    
P  7   6335.949215 -24971.008127  -5029.594216    -93.122325                    
V  7   2617.092318   7159.855186 -31048.339812     -0.078926                    
P  8  20890.313010    674.422998  16539.209046     -4.145232                    
V  8  16275.441339  13103.418409 -20930.025269     -0.014459                    
P  9   3486.730126 -15819.656546 -21088.321063    -15.678045                    
V  9  22377.390977  14603.212013  -7276.558159     -0.091434                    
P 10   2609.960576  15297.209210  21594.885070    -28.797160                    
V 10 -25015.481936  10918.996459  -4929.778757     -0.145683                    
P 11  12643.017930 -10949.437911  20151.501112   -524.779015                    
V 11  10216.703637  24948.837151   6678.756543      0.103878                    
P 12 -24454.121771  10080.278013  -1252.293897    210.315740                    
V 12  -2048.805503  -1659.422080  32274.374880     -0.037418                    
P 13 -22037.926553 -11171.266099   9716.449633    -47.711729                    
V 13  -7619.469499 -10135.977620 -28547.609713      0.019809                    
P 14  18272.895686  19049.233764   4065.974169    -64.627580                    
V 14  -5292.779496  -1055.030193  31076.182939      0.019525                    
P 15 -21072.229892   1714.435360  16028.487515   -291.480282                    
V 15 -16864.282270 -12419.546597 -20097.833255      0.026658                    
P 16  22021.947800   2871.809677 -15075.394466    -68.384205                    
V 16 -17116.004190   7369.535193 -23480.265510     -0.033851                    
P 17 -12646.089361 -20317.514225  12019.894408    113.782989                    
V 17  12356.521068   7849.843634  27125.533702      0.069006                    
P 18  14929.505521  -5577.563220  20725.833628     80.856619                    
V 18   -393.201301  27541.667866   7622.340084      0.029591                    
P 19 -17057.721766 -19572.895078   5201.143676   -275.801981                    
V 19   6673.352832   2983.711651  31335.692755      0.050742                    
P 20  -6715.832051  19029.974252  17077.655363    526.623778                    
V 20 -20010.783157   9548.325883 -18566.883090      0.001552                    
P 21   -998.012566  26622.583473    -84.515000   -129.753405                    
V 21  -3009.661624  -1152.230463 -31390.479844      0.065891                    
P 22  24254.049153 -10075.195282   3834.270441   -748.136221                    
V 22  -2215.369408   5593.992570  30572.035531     -0.041902                    
P 23  15609.315058  -6973.317811 -20077.154658   -170.236620                    
V 23  21094.856158  15611.919539  10407.517075      0.019948                    
P 24 -14220.945002  11997.438591  18669.282987     -1.307486                    
V 24   -903.241334 -24293.907284  15134.614394     -0.004854                    
P 25 -15717.428750  16949.462380 -13064.155093     -9.328796                    
V 25 -15768.798891   4754.828881  25798.283507     -0.018697                    
P 26  14439.412428   9148.433198 -20389.180868     24.147045                    
V 26 -22789.947112  12220.359070 -10484.546509      0.089455                    
P 27  23268.501846  11734.691974   5786.633467    -35.671029                    
V 27   4926.256315   5880.151762 -30829.810169     -0.117279                    
P 28  -1419.685636 -15294.744133  22284.875670    763.856323                    
V 28  25341.335527  -8652.164513  -4348.502406     -0.009553                    
P 29  -6893.029308  13206.540888 -22023.264279    114.818276                    
V 29 -21683.561044 -17409.508278  -3679.806236     -0.100832                    
P 30   -650.673867 -25834.547238   5697.826255    -27.513225                    
V 30   4472.442919  -6710.256653 -30279.228454     -0.078465                    
P 31   7846.736022  20447.882761 -14708.154672     14.725276                    
V 31  -4727.447869  18408.282575  23517.882515     -0.025971                    
P 32  13529.693941  19674.138249  11825.532217     33.593179                    
V 32 -13541.702002  -6609.758677  26510.709702      0.141972                    
EOF
